MALLIGYONG-1            
1 58400U 23179A   24131.51376213  .00009926  00000+0  43224-3 0  9991
2 58400  97.4081  18.9357 0010377  44.7211 315.4860 15.22367878 25999
